NORAD_CAT_ID,OBJECT_NAME,OBJECT_TYPE,EPOCH,MEAN_MOTION,ECCENTRICITY,INCLINATION,RA_OF_ASC_NODE,ARG_OF_PERICENTER,MEAN_ANOMALY,BSTAR,MEAN_MOTION_DOT,MEAN_MOTION_DDOT,TLE_LINE0,TLE_LINE1,TLE_LINE2,SEMIMAJOR_AXIS,PERIOD,APOGEE,PERIGEE,DECAYED
49725.0,STARLINK-3218,PAYLOAD,2022-10-22 22:38:55,15.08846393,0.0002227,53.218,287.6342,39.0109,321.1043,7.2198e-05,8.61e-06,0.0,0 STARLINK-3218,1 49725U 21115B   22295.94369545  .00000861  00000-0  72198-4 0  9998,2 49725  53.2180 287.6342 0002227  39.0109 321.1043 15.08846393 50393,6917.861,95.437,541.266,538.185,0.0
49725.0,STARLINK-3218,PAYLOAD,2022-10-23 08:11:14,15.08845649,0.000242,53.2165,285.8489,40.9198,319.1975,5.9274e-05,6.55e-06,0.0,0 STARLINK-3218,1 49725U 21115B   22296.34113465  .00000655  00000-0  59274-4 0  9992,2 49725  53.2165 285.8489 0002420  40.9198 319.1975 15.08845649 49349,6917.863,95.437,541.4019999999998,538.054,0.0
49725.0,STARLINK-3218,PAYLOAD,2022-10-24 08:02:01,15.08838551,0.0002578,53.2162,281.3857,33.7945,326.3211,-5.9325e-05,-1.233e-05,0.0,0 STARLINK-3218,1 49725U 21115B   22297.33473533 -.00001233  00000-0 -59325-4 0  9999,2 49725  53.2162 281.3857 0002578  33.7945 326.3211 15.08838551 50608,6917.885,95.438,541.533,537.966,0.0
49725.0,STARLINK-3218,PAYLOAD,2022-10-24 22:20:30,15.08826249,0.0002331999999999,53.2162,278.7139,40.1894,319.927,-0.00020186,-3.498e-05,0.0,0 STARLINK-3218,1 49725U 21115B   22297.93090473 -.00003498  00000-0 -20186-3 0  9990,2 49725  53.2162 278.7139 0002332  40.1894 319.9270 15.08826249 50697,6917.922,95.438,541.401,538.174,0.0
49725.0,STARLINK-3218,PAYLOAD,2022-10-25 07:52:49,15.08833214,0.0001681,53.2173,276.9301,59.6502,300.4656,1.8688e-05,9e-08,0.0,0 STARLINK-3218,1 49725U 21115B   22298.32834630  .00000009  00000-0  18688-4 0  9993,2 49725  53.2173 276.9301 0001681  59.6502 300.4656 15.08833214 50757,6917.901,95.438,540.929,538.6030000000002,0.0
49725.0,STARLINK-3218,PAYLOAD,2022-10-25 23:46:39,15.08857146,0.0002114,53.217,273.9577,43.6092,316.5067,-9.1184e-05,-1.74e-05,0.0,0 STARLINK-3218,1 49725U 21115B   22298.99073613 -.00001740  00000-0 -91184-4 0  9999,2 49725  53.2170 273.9577 0002114  43.6092 316.5067 15.08857146 50850,6917.828,95.436,541.155,538.231,0.0
49725.0,STARLINK-3218,PAYLOAD,2022-10-26 06:08:12,15.08845347,0.0002261,53.2167,272.7657,43.0396,317.0773,0.00017154,2.443e-05,0.0,0 STARLINK-3218,1 49725U 21115B   22299.25569976  .00002443  00000-0  17154-3 0  9994,2 49725  53.2167 272.7657 0002261  43.0396 317.0773 15.08845347 49786,6917.864000000001,95.437,541.293,538.165,0.0
49725.0,STARLINK-3218,PAYLOAD,2022-10-26 18:51:18,15.08838822,0.000241,53.2168,270.3883,38.5256,321.5907,0.00029515,4.412e-05,0.0,0 STARLINK-3218,1 49725U 21115B   22299.78562782  .00004412  00000-0  29515-3 0  9992,2 49725  53.2168 270.3883 0002410  38.5256 321.5907 15.08838822 50974,6917.884,95.438,541.4159999999998,538.082,0.0
49725.0,STARLINK-3218,PAYLOAD,2022-10-26 22:02:04,15.08844066,0.0002407,53.2165,269.7928,39.2194,320.8973,0.00030508,4.571e-05,0.0,0 STARLINK-3218,1 49725U 21115B   22299.91810562  .00004571  00000-0  30508-3 0  9999,2 49725  53.2165 269.7928 0002407  39.2194 320.8973 15.08844066 49888,6917.868,95.437,541.398,538.068,0.0
49725.0,STARLINK-3218,PAYLOAD,2022-10-27 07:34:22,15.08849678,0.0002255999999999,53.2171,268.0082,40.1347,319.9812,0.00040485,6.163e-05,0.0,0 STARLINK-3218,1 49725U 21115B   22300.31554251  .00006163  00000-0  40485-3 0  9990,2 49725  53.2171 268.0082 0002256  40.1347 319.9812 15.08849678 49943,6917.851,95.437,541.276,538.155,0.0
49725.0,STARLINK-3218,PAYLOAD,2022-10-27 15:31:18,15.08844867,0.0002264,53.2171,266.5207,40.0618,320.0541,0.00022334,3.268e-05,0.0,0 STARLINK-3218,1 49725U 21115B   22300.64674331  .00003268  00000-0  22334-3 0  9994,2 49725  53.2171 266.5207 0002264  40.0618 320.0541 15.08844867 49996,6917.866,95.437,541.297,538.164,0.0
49725.0,STARLINK-3218,PAYLOAD,2022-10-28 04:14:22,15.08873523,0.0002853999999999,53.2171,264.1427,34.6863,325.4315,0.0006446,9.995e-05,0.0,0 STARLINK-3218,1 49725U 21115B   22301.17665065  .00009995  00000-0  64460-3 0  9996,2 49725  53.2171 264.1427 0002854  34.6863 325.4315 15.08873523 51183,6917.778,95.435,541.617,537.669,0.0
49725.0,STARLINK-3218,PAYLOAD,2022-10-29 00:54:23,15.08855474,0.0002086999999999,53.2168,260.2758,38.1005,322.0135,0.00020014,2.9e-05,0.0,0 STARLINK-3218,1 49725U 21115B   22302.03776962  .00002900  00000-0  20014-3 0  9997,2 49725  53.2168 260.2758 0002087  38.1005 322.0135 15.08855474 51311,6917.833000000001,95.437,541.1419999999998,538.254,0.0
49725.0,STARLINK-3218,PAYLOAD,2022-10-29 04:05:09,15.088447,0.000215,53.217,259.6814,38.2451,321.8693,-2.2429e-05,-6.45e-06,0.0,0 STARLINK-3218,1 49725U 21115B   22302.17025198 -.00000645  00000-0 -22429-4 0  9999,2 49725  53.2170 259.6814 0002150  38.2451 321.8693 15.08844700 51334,6917.866,95.437,541.2180000000002,538.244,0.0
49725.0,STARLINK-3218,PAYLOAD,2022-10-30 02:20:33,15.08850683,0.0002008999999999,53.217,255.5181,39.7758,320.3382,0.00031255,4.691e-05,0.0,0 STARLINK-3218,1 49725U 21115B   22303.09760913  .00004691  00000-0  31255-3 0  9991,2 49725  53.2170 255.5181 0002009  39.7758 320.3382 15.08850683 50363,6917.848000000001,95.437,541.1030000000002,538.323,0.0
49725.0,STARLINK-3218,PAYLOAD,2022-10-30 21:25:11,15.08834302,0.000217,53.2192,251.9532,53.5374,306.5818,3.4428e-05,2.6e-06,0.0,0 STARLINK-3218,1 49725U 21115B   22303.89249887  .00000260  00000-0  34428-4 0  9995,2 49725  53.2192 251.9532 0002170  53.5374 306.5818 15.08834302 50487,6917.898,95.438,541.264,538.262,0.0
49725.0,STARLINK-3218,PAYLOAD,2022-10-31 05:22:08,15.08823702,0.0002233,53.2179,250.4654,39.6012,320.5143,-2.3483e-05,-6.62e-06,0.0,0 STARLINK-3218,1 49725U 21115B   22304.22370705 -.00000662  00000-0 -23483-4 0  9994,2 49725  53.2179 250.4654 0002233  39.6012 320.5143 15.08823702 50530,6917.93,95.439,541.34,538.25,0.0
49725.0,STARLINK-3218,PAYLOAD,2022-10-31 19:40:36,15.08838889,0.0002024,53.2195,247.789,44.4542,315.6612,2.6146e-05,1.28e-06,0.0,0 STARLINK-3218,1 49725U 21115B   22304.81986524  .00000128  00000-0  26146-4 0  9995,2 49725  53.2195 247.7890 0002024  44.4542 315.6612 15.08838889 51730,6917.884,95.438,541.149,538.349,0.0
49725.0,STARLINK-3218,PAYLOAD,2022-10-31 21:15:59,15.08855887,0.000206,53.22,247.4916,67.0366,293.0844,-0.00025296,-4.314e-05,0.0,0 STARLINK-3218,1 49725U 21115B   22304.88610313 -.00004314  00000-0 -25296-3 0  9999,2 49725  53.2200 247.4916 0002060  67.0366 293.0844 15.08855887 50639,6917.831999999999,95.437,541.122,538.2719999999998,0.0
49725.0,STARLINK-3218,PAYLOAD,2022-11-01 13:09:50,15.08836007,0.0002098,53.2165,244.5153,37.8571,322.2569,0.00012365,1.6800000000000002e-05,0.0,0 STARLINK-3218,1 49725U 21115B   22305.54850662  .00001680  00000-0  12365-3 0  9990,2 49725  53.2165 244.5153 0002098  37.8571 322.2569 15.08836007 50737,6917.893,95.438,541.2090000000002,538.306,0.0
49725.0,STARLINK-3218,PAYLOAD,2022-11-01 21:06:46,15.08832482,0.0002044999999999,53.2158,243.0306,40.3424,319.7719,0.00015755,2.22e-05,0.0,0 STARLINK-3218,1 49725U 21115B   22305.87971036  .00002220  00000-0  15755-3 0  9992,2 49725  53.2158 243.0306 0002045  40.3424 319.7719 15.08832482 50787,6917.903,95.438,541.183,538.354,0.0
49725.0,STARLINK-3218,PAYLOAD,2022-11-02 01:52:56,15.08841365,0.0002063,53.2186,242.1393,48.7433,311.3737,0.00012888,1.764e-05,0.0,0 STARLINK-3218,1 49725U 21115B   22306.07842678  .00001764  00000-0  12888-3 0  9990,2 49725  53.2186 242.1393 0002063  48.7433 311.3737 15.08841365 51921,6917.876,95.437,541.168,538.314,0.0
49725.0,STARLINK-3218,PAYLOAD,2022-11-02 13:00:38,15.08838372,0.0002251999999999,53.217,240.0569,41.0545,319.0617,8.8516e-05,1.121e-05,0.0,0 STARLINK-3218,1 49725U 21115B   22306.54210961  .00001121  00000-0  88516-4 0  9995,2 49725  53.2170 240.0569 0002252  41.0545 319.0617 15.08838372 50886,6917.885,95.438,541.308,538.192,0.0
49725.0,STARLINK-3218,PAYLOAD,2022-11-03 01:43:43,15.08833426,0.0002222,53.2179,237.6779,35.3285,324.7854,3.4187e-05,2.56e-06,0.0,0 STARLINK-3218,1 49725U 21115B   22307.07203702  .00000256  00000-0  34187-4 0  9992,2 49725  53.2179 237.6779 0002222  35.3285 324.7854 15.08833426 52078,6917.9,95.438,541.303,538.2280000000002,0.0
49725.0,STARLINK-3218,PAYLOAD,2022-11-03 04:54:29,15.08843856,0.0002173,53.2185,237.0797,60.3226,299.7983,-4.0173e-05,-9.28e-06,0.0,0 STARLINK-3218,1 49725U 21115B   22307.20451154 -.00000928  00000-0 -40173-4 0  9993,2 49725  53.2185 237.0797 0002173  60.3226 299.7983 15.08843856 52091,6917.869000000002,95.437,541.237,538.23,0.0
49725.0,STARLINK-3218,PAYLOAD,2022-11-04 01:34:29,15.08856792,0.0001938,53.2175,233.2177,38.7335,321.3796,0.00014884,2.082e-05,0.0,0 STARLINK-3218,1 49725U 21115B   22308.06561350  .00002082  00000-0  14884-3 0  9998,2 49725  53.2175 233.2177 0001938  38.7335 321.3796 15.08856792 52220,6917.829000000002,95.436,541.035,538.3530000000002,0.0
49725.0,STARLINK-3218,PAYLOAD,2022-11-04 12:42:10,15.08859834,0.0001846,53.2173,231.1345,41.65,318.4633,0.00027503,4.094e-05,0.0,0 STARLINK-3218,1 49725U 21115B   22308.52929162  .00004094  00000-0  27503-3 0  9995,2 49725  53.2173 231.1345 0001846  41.6500 318.4633 15.08859834 51188,6917.82,95.436,540.962,538.408,0.0
49725.0,STARLINK-3218,PAYLOAD,2022-11-04 19:03:44,15.08845978,0.0002056,53.2184,229.9434,45.9542,314.1619,0.00017313,2.469e-05,0.0,0 STARLINK-3218,1 49725U 21115B   22308.79425980  .00002469  00000-0  17313-3 0  9995,2 49725  53.2184 229.9434 0002056  45.9542 314.1619 15.08845978 52330,6917.861999999999,95.437,541.149,538.305,0.0
49725.0,STARLINK-3218,PAYLOAD,2022-11-04 23:49:53,15.08837198,0.000218,53.2182,229.0509,30.2774,329.8344,3.359e-05,2.46e-06,0.0,0 STARLINK-3218,1 49725U 21115B   22308.99298467  .00000246  00000-0  33590-4 0  9992,2 49725  53.2182 229.0509 0002180  30.2774 329.8344 15.08837198 51257,6917.889,95.438,541.262,538.246,0.0
